IRIDIUM 159             
1 43578U 18061K   24154.14822311  .00000232  00000+0  75805-4 0  9996
2 43578  86.3982   8.0693 0002440  82.7044 277.4429 14.34218252306596
IRIDIUM 180             
1 43922U 19002A   24153.51980124  .00000161  00000+0  50260-4 0  9991
2 43922  86.3945 305.2144 0002207  88.4448 271.7000 14.34217188282113
IRIDIUM 176             
1 43923U 19002B   24153.48531264  .00001423  00000+0  22174-3 0  9999
2 43923  86.6072 305.2516 0002361  87.0969 273.0518 14.72252828289539
IRIDIUM 168             
1 43924U 19002C   24153.51345946  .00000286  00000+0  95094-4 0  9992
2 43924  86.3946 305.2734 0002260  94.4663 265.6791 14.34219277282093
IRIDIUM 173             
1 43925U 19002D   24153.50077422  .00000168  00000+0  52859-4 0  9994
2 43925  86.3943 305.1981 0002218  90.2745 269.8705 14.34218772282070
IRIDIUM 169             
1 43926U 19002E   24153.82308875  .00000167  00000+0  48241-4 0  9998
2 43926  86.4217 336.6893 0000568  16.9071 343.2146 14.38587935283060
IRIDIUM 172             
1 43927U 19002F   24153.84327470  .00000049  00000+0  10328-4 0  9997
2 43927  86.3943 305.0605 0002252  90.4837 269.6617 14.34218032282132
IRIDIUM 175             
1 43928U 19002G   24154.15925665  .00001516  00000+0  23649-3 0  9992
2 43928  86.1495 278.9528 0001880  91.8836 268.2595 14.72250218289620
